NORAD_CAT_ID,OBJECT_NAME,OBJECT_TYPE,EPOCH,MEAN_MOTION,ECCENTRICITY,INCLINATION,RA_OF_ASC_NODE,ARG_OF_PERICENTER,MEAN_ANOMALY,BSTAR,MEAN_MOTION_DOT,MEAN_MOTION_DDOT,TLE_LINE0,TLE_LINE1,TLE_LINE2,SEMIMAJOR_AXIS,PERIOD,APOGEE,PERIGEE,DECAYED
52679.0,STARLINK-4031,PAYLOAD,2022-11-29 09:14:59,15.08838194,0.0001857,53.2184,114.5414,43.61600000000001,316.4978,-1.1164e-05,-4.66e-06,0.0,0 STARLINK-4031,1 52679U 22053Z   22333.38541274 -.00000466  00000-0 -11164-4 0  9993,2 52679  53.2184 114.5414 0001857  43.6160 316.4978 15.08838194 30148,6917.886,95.438,541.036,538.466,0.0
52679.0,STARLINK-4031,PAYLOAD,2022-11-29 10:50:22,15.08839939,0.0001922,53.2191,114.2451,45.7856,314.3294,7.889199999999999e-06,-1.63e-06,0.0,0 STARLINK-4031,1 52679U 22053Z   22333.45165149 -.00000163  00000-0  78892-5 0  9999,2 52679  53.2191 114.2451 0001922  45.7856 314.3294 15.08839939 30542,6917.880999999999,95.438,541.075,538.4159999999998,0.0
52679.0,STARLINK-4031,PAYLOAD,2022-11-29 17:11:54,15.08846145,0.0002158,53.2179,113.0535,49.7612,310.3568,5.5929e-05,6.02e-06,0.0,0 STARLINK-4031,1 52679U 22053Z   22333.71660680  .00000602  00000-0  55929-4 0  9990,2 52679  53.2179 113.0535 0002158  49.7612 310.3568 15.08846145 30192,6917.861999999999,95.437,541.219,538.234,0.0
52679.0,STARLINK-4031,PAYLOAD,2022-11-30 18:38:04,15.08835142,0.0002111,53.2177,108.294,53.4305,306.6882,0.00027613,4.109e-05,0.0,0 STARLINK-4031,1 52679U 22053Z   22334.77644547  .00004109  00000-0  27613-3 0  9995,2 52679  53.2177 108.2940 0002111  53.4305 306.6882 15.08835142 30356,6917.895,95.438,541.221,538.3,0.0
52679.0,STARLINK-4031,PAYLOAD,2022-12-01 08:56:33,15.08845157,0.0002211,53.2182,105.6192,51.155,308.9639,3.5804e-05,2.82e-06,0.0,0 STARLINK-4031,1 52679U 22053Z   22335.37260570  .00000282  00000-0  35804-4 0  9992,2 52679  53.2182 105.6192 0002211  51.1550 308.9639 15.08845157 30835,6917.865,95.437,541.259,538.2,0.0
52679.0,STARLINK-4031,PAYLOAD,2022-12-01 15:18:05,15.08843502,0.0002271,53.2186,104.4303,50.9822,309.1372,2.0883000000000007e-05,4.4e-07,0.0,0 STARLINK-4031,1 52679U 22053Z   22335.63756639  .00000044  00000-0  20883-4 0  9994,2 52679  53.2186 104.4303 0002271  50.9822 309.1372 15.08843502 30878,6917.87,95.437,541.306,538.164,0.0
52679.0,STARLINK-4031,PAYLOAD,2022-12-02 08:47:19,15.08852229,0.0002236,53.2177,101.1589,51.5037,308.6155,-7.7008e-05,-1.514e-05,0.0,0 STARLINK-4031,1 52679U 22053Z   22336.36620060 -.00001514  00000-0 -77008-4 0  9999,2 52679  53.2177 101.1589 0002236  51.5037 308.6155 15.08852229 30592,6917.843000000003,95.437,541.255,538.161,0.0
52679.0,STARLINK-4031,PAYLOAD,2022-12-02 11:58:06,15.08845329,0.0002125,53.2172,100.5635,47.9379,312.1793,-3.7609e-05,-8.87e-06,0.0,0 STARLINK-4031,1 52679U 22053Z   22336.49868163 -.00000887  00000-0 -37609-4 0  9996,2 52679  53.2172 100.5635 0002125  47.9379 312.1793 15.08845329 31005,6917.864000000001,95.437,541.1990000000002,538.259,0.0
52679.0,STARLINK-4031,PAYLOAD,2022-12-03 08:38:06,15.08838378,0.0002103,53.2172,96.697,53.3388,306.7797,3.4263e-05,2.57e-06,0.0,0 STARLINK-4031,1 52679U 22053Z   22337.35980172  .00000257  00000-0  34263-4 0  9999,2 52679  53.2172  96.6970 0002103  53.3388 306.7797 15.08838378 30748,6917.885,95.438,541.205,538.2959999999998,0.0
52679.0,STARLINK-4031,PAYLOAD,2022-12-03 13:24:16,15.08837393,0.0001984,53.2177,95.805,51.6521,308.4649,2.0416e-05,3.7e-07,0.0,0 STARLINK-4031,1 52679U 22053Z   22337.55852292  .00000037  00000-0  20416-4 0  9993,2 52679  53.2177  95.8050 0001984  51.6521 308.4649 15.08837393 31167,6917.888000000001,95.438,541.126,538.381,0.0
52679.0,STARLINK-4031,PAYLOAD,2022-12-03 14:59:39,15.08838393,0.0002069,53.2183,95.5086,45.2246,314.8914,4.0849e-05,3.62e-06,0.0,0 STARLINK-4031,1 52679U 22053Z   22337.62476208  .00000362  00000-0  40849-4 0  9993,2 52679  53.2183  95.5086 0002069  45.2246 314.8914 15.08838393 31176,6917.885,95.438,541.182,538.319,0.0
52679.0,STARLINK-4031,PAYLOAD,2022-12-04 08:28:54,15.08831393,0.0002123,53.2182,92.2379,44.4813,315.635,3.0045e-05,1.9e-06,0.0,0 STARLINK-4031,1 52679U 22053Z   22338.35340698  .00000190  00000-0  30045-4 0  9993,2 52679  53.2182  92.2379 0002123  44.4813 315.6350 15.08831393 30890,6917.906999999997,95.438,541.24,538.303,0.0
52679.0,STARLINK-4031,PAYLOAD,2022-12-04 18:01:12,15.08840057,0.0002068,53.2181,90.4537,43.7119,316.4036,3.4346999999999995e-05,2.58e-06,0.0,0 STARLINK-4031,1 52679U 22053Z   22338.75084206  .00000258  00000-0  34347-4 0  9991,2 52679  53.2181  90.4537 0002068  43.7119 316.4036 15.08840057 30958,6917.88,95.438,541.1759999999998,538.315,0.0
52679.0,STARLINK-4031,PAYLOAD,2022-12-05 08:19:40,15.08838976,0.0002072,53.2192,87.7778,47.7858,312.331,6.7065e-05,7.79e-06,0.0,0 STARLINK-4031,1 52679U 22053Z   22339.34700205  .00000779  00000-0  67065-4 0  9992,2 52679  53.2192  87.7778 0002072  47.7858 312.3310 15.08838976 31436,6917.884,95.438,541.182,538.315,0.0
52679.0,STARLINK-4031,PAYLOAD,2022-12-05 16:16:36,15.08844039,0.0002107,53.2193,86.2911,46.124,313.9926,8.8604e-05,1.122e-05,0.0,0 STARLINK-4031,1 52679U 22053Z   22339.67819833  .00001122  00000-0  88604-4 0  9991,2 52679  53.2193  86.2911 0002107  46.1240 313.9926 15.08844039 31489,6917.868,95.437,541.191,538.275,0.0
52679.0,STARLINK-4031,PAYLOAD,2022-12-06 00:13:31,15.08854784,0.0002221,53.2196,84.8043,44.343,315.7739,0.00015056,2.11e-05,0.0,0 STARLINK-4031,1 52679U 22053Z   22340.00938852  .00002110  00000-0  15056-3 0  9991,2 52679  53.2196  84.8043 0002221  44.3430 315.7739 15.08854784 31143,6917.835,95.437,541.237,538.164,0.0
52679.0,STARLINK-4031,PAYLOAD,2022-12-06 06:35:04,15.08845735,0.0002176,53.219,83.6163,37.8885,322.226,0.00016421,2.327e-05,0.0,0 STARLINK-4031,1 52679U 22053Z   22340.27435254  .00002327  00000-0  16421-3 0  9995,2 52679  53.2190  83.6163 0002176  37.8885 322.2260 15.08845735 31189,6917.863,95.437,541.2330000000002,538.2230000000002,0.0
52679.0,STARLINK-4031,PAYLOAD,2022-12-06 14:32:01,15.08830093,0.0001758,53.2188,82.1277,42.4185,317.6942,-3.7896e-05,-8.91e-06,0.0,0 STARLINK-4031,1 52679U 22053Z   22340.60556754 -.00000891  00000-0 -37896-4 0  9997,2 52679  53.2188  82.1277 0001758  42.4185 317.6942 15.08830093 31238,6917.911,95.438,540.992,538.56,0.0
52679.0,STARLINK-4031,PAYLOAD,2022-12-07 15:58:11,15.08830798,0.000208,53.2187,77.3694,38.0905,322.0234,-7.2153e-05,-1.436e-05,0.0,0 STARLINK-4031,1 52679U 22053Z   22341.66541530 -.00001436  00000-0 -72153-4 0  9991,2 52679  53.2187  77.3694 0002080  38.0905 322.0234 15.08830798 31399,6917.909000000002,95.438,541.212,538.335,0.0
52679.0,STARLINK-4031,PAYLOAD,2022-12-07 23:55:06,15.08843953,0.0002112,53.2194,75.8842,35.2135,324.8996,-1.6054000000000002e-05,-5.44e-06,0.0,0 STARLINK-4031,1 52679U 22053Z   22341.99660607 -.00000544  00000-0 -16054-4 0  9991,2 52679  53.2194  75.8842 0002112  35.2135 324.8996 15.08843953 31443,6917.868,95.437,541.194,538.2719999999998,0.0
52679.0,STARLINK-4031,PAYLOAD,2022-12-08 12:38:12,15.08831186,0.0002628999999999,53.2195,73.5079,331.0113,29.0733,1.3615e-05,-7.2e-07,0.0,0 STARLINK-4031,1 52679U 22053Z   22342.52652933 -.00000072  00000-0  13615-4 0  9999,2 52679  53.2195  73.5079 0002629 331.0113  29.0733 15.08831186 31917,6917.906999999997,95.438,541.591,537.9540000000002,0.0
52679.0,STARLINK-4031,PAYLOAD,2022-12-08 23:45:59,15.08736563,0.0003111,53.2192,71.4283,291.6427,68.4234,-0.0007271,-0.0001181,0.0,0 STARLINK-4031,1 52679U 22053Z   22342.99026679 -.00011810  00000-0 -72710-3 0  9995,2 52679  53.2192  71.4283 0003111 291.6427  68.4234 15.08736563 31594,6918.196999999999,95.444,542.214,537.909,0.0
52679.0,STARLINK-4031,PAYLOAD,2022-12-09 17:15:00,15.08936584,0.000208,53.2192,68.1565,9.108,350.995,0.0012845,0.00020268,0.0,0 STARLINK-4031,1 52679U 22053Z   22343.71875676  .00020268  00000-0  12845-2 0  9992,2 52679  53.2192  68.1565 0002080   9.1080 350.9950 15.08936584 31703,6917.585,95.431,540.889,538.011,0.0
52679.0,STARLINK-4031,PAYLOAD,2022-12-10 10:44:24,15.08793039,0.000131,53.2199,64.8876,298.4163,61.6697,0.00051863,7.965e-05,0.0,0 STARLINK-4031,1 52679U 22053Z   22344.44750575  .00007965  00000-0  51863-3 0  9996,2 52679  53.2199  64.8876 0001310 298.4163  61.6697 15.08793039 31810,6918.024,95.441,540.795,538.9830000000002,0.0
52679.0,STARLINK-4031,PAYLOAD,2022-12-11 10:35:11,15.08782637,0.0001498,53.2193,60.4174,306.2076,53.8777,0.0010503,0.00016441,0.0,0 STARLINK-4031,1 52679U 22053Z   22345.44110997  .00016441  00000-0  10503-2 0  9999,2 52679  53.2193  60.4174 0001498 306.2076  53.8777 15.08782637 31965,6918.056,95.441,540.957,538.884,0.0
52679.0,STARLINK-4031,PAYLOAD,2022-12-11 15:21:20,15.08832453,0.0002065,53.2187,59.5277,46.9691,313.1474,0.00034396,5.189e-05,0.0,0 STARLINK-4031,1 52679U 22053Z   22345.63981882  .00005189  00000-0  34396-3 0  9993,2 52679  53.2187  59.5277 0002065  46.9691 313.1474 15.08832453 31994,6917.903,95.438,541.197,538.34,0.0
52679.0,STARLINK-4031,PAYLOAD,2022-12-12 10:25:57,15.08838128,0.0002109,53.218,55.9599,38.7334,321.3809,8.1483e-05,1.009e-05,0.0,0 STARLINK-4031,1 52679U 22053Z   22346.43469798  .00001009  00000-0  81483-4 0  9996,2 52679  53.2180  55.9599 0002109  38.7334 321.3809 15.08838128 32502,6917.886,95.438,541.21,538.2919999999998,0.0
52679.0,STARLINK-4031,PAYLOAD,2022-12-13 05:30:35,15.08841801,0.0002269,53.218,52.3921,32.3504,327.7627,7.392e-05,8.88e-06,0.0,0 STARLINK-4031,1 52679U 22053Z   22347.22957555  .00000888  00000-0  73920-4 0  9998,2 52679  53.2180  52.3921 0002269  32.3504 327.7627 15.08841801 32238,6917.875,95.437,541.31,538.17,0.0
52679.0,STARLINK-4031,PAYLOAD,2022-12-13 10:16:44,15.08855093,0.0002173,53.2181,51.4998,33.2157,326.8971,-0.00028118,-4.763e-05,0.0,0 STARLINK-4031,1 52679U 22053Z   22347.42828755 -.00004763  00000-0 -28118-3 0  9995,2 52679  53.2181  51.4998 0002173  33.2157 326.8971 15.08855093 32657,6917.834,95.437,541.203,538.196,0.0
